STARLINK-36380          
1 68344U 26059Z   26105.25002315 -.01895171  00000+0 -23024-1 0  9994
2 68344  53.1596 179.7515 0000864  78.1604 329.0911 15.63139077  4916
STARLINK-37214          
1 68345U 26059AA  26105.25002315 -.01902947  00000+0 -20397-1 0  9995
2 68345  53.1595 179.6282 0001096  66.6286  41.2769 15.66269290  4910
STARLINK-37169          
1 68346U 26059AB  26105.25002315 -.01891905  00000+0 -22145-1 0  9990
2 68346  53.1597 179.6799 0000833  85.5636 356.8722 15.64069505  4923
STARLINK-37136          
1 68347U 26059AC  26105.25002315 -.01909976  00000+0 -17144-1 0  9992
2 68347  53.1595 179.5168 0001121  86.5081  75.8377 15.70560146  4925
STARLINK-37182          
1 68348U 26059AD  26105.25002315 -.01903038  00000+0 -20504-1 0  9990
2 68348  53.1595 179.6400 0001103  68.4922  33.5305 15.66141673  4926
STARLINK-37183          
1 68349U 26059AE  26105.22004748 -.00891532  00000+0 -76153-2 0  9996
2 68349  53.1592 179.6502 0000802  46.4634 313.6452 15.71420046  3753
CENTISPACE-1 OBJECT A   
1 68350U 26060A   26105.22776817  .00000397  00000+0  92030-4 0  9996
2 68350  54.9809 292.6213 0010299 333.7270  26.3205 14.73544754  3487
CENTISPACE-1 OBJECT B   
1 68351U 26060B   26105.22548903  .00000710  00000+0  13909-3 0  9996
2 68351  54.9813 292.6089 0010806 338.1054  21.9481 14.73762870  3485
CENTISPACE-1 OBJECT C   
1 68352U 26060C   26105.15616244 -.00000093  00000+0  17346-4 0  9998
2 68352  54.9808 292.8755 0009808   2.0232 358.0805 14.73745532  3476
CENTISPACE-1 OBJECT D   
1 68353U 26060D   26105.15462481 -.00000089  00000+0  17801-4 0  9992
2 68353  54.9825 292.8714 0011345   7.1384 352.9775 14.74292384  3476
CENTISPACE-1 OBJECT E   
1 68354U 26060E   26105.22060017 -.00000088  00000+0  17994-4 0  9992
2 68354  54.9756 292.5708 0012661   3.4711 356.6374 14.74545315  3487
CENTISPACE-1 OBJECT F   
1 68355U 26060F   26105.22259640 -.00000089  00000+0  17896-4 0  9997
2 68355  54.9768 292.5807 0010397 357.5879   2.5068 14.73875432  3485
CENTISPACE-1 OBJECT G   
1 68356U 26060G   26105.21805152 -.00000087  00000+0  18192-4 0  9990
2 68356  54.9868 292.5778 0012768 359.4379   0.6604 14.74586658  3489
CENTISPACE-1 OBJECT H   
1 68357U 26060H   26104.88007689 -.00000087  00000+0  18234-4 0  9999
2 68357  54.9854 293.9641 0011768   6.2750 353.8394 14.74219237  3438
CENTISPACE-1 OBJECT J   
1 68358U 26060J   26103.86305903 -.00000079  00000+0  19419-4 0  9994
2 68358  54.9815 298.1015 0011781   0.9389 359.1630 14.74100555  3289
CENTISPACE-1 OBJECT K   
1 68359U 26060K   26094.64400183  .00000084  00000+0  43131-4 0  9999
2 68359  54.9800 335.6935 0014769 336.0624  23.9687 14.75283234  1920
