[{"OBJECT_NAME":"STARLINK-36380","OBJECT_ID":"2026-059Z","EPOCH":"2026-04-15T06:00:02.000160","MEAN_MOTION":15.63139077,"ECCENTRICITY":8.644e-5,"INCLINATION":53.1596,"RA_OF_ASC_NODE":179.7515,"ARG_OF_PERICENTER":78.1604,"MEAN_ANOMALY":329.0911,"EPHEMERIS_TYPE":0,"CLASSIFICATION_TYPE":"U","NORAD_CAT_ID":68344,"ELEMENT_SET_NO":999,"REV_AT_EPOCH":491,"BSTAR":-0.023024099,"MEAN_MOTION_DOT":-0.01895171,"MEAN_MOTION_DDOT":0},{"OBJECT_NAME":"STARLINK-37214","OBJECT_ID":"2026-059AA","EPOCH":"2026-04-15T06:00:02.000160","MEAN_MOTION":15.6626929,"ECCENTRICITY":0.00010961,"INCLINATION":53.1595,"RA_OF_ASC_NODE":179.6282,"ARG_OF_PERICENTER":66.6286,"MEAN_ANOMALY":41.2769,"EPHEMERIS_TYPE":0,"CLASSIFICATION_TYPE":"U","NORAD_CAT_ID":68345,"ELEMENT_SET_NO":999,"REV_AT_EPOCH":491,"BSTAR":-0.020397281,"MEAN_MOTION_DOT":-0.01902947,"MEAN_MOTION_DDOT":0},{"OBJECT_NAME":"STARLINK-37169","OBJECT_ID":"2026-059AB","EPOCH":"2026-04-15T06:00:02.000160","MEAN_MOTION":15.64069505,"ECCENTRICITY":8.331e-5,"INCLINATION":53.1597,"RA_OF_ASC_NODE":179.6799,"ARG_OF_PERICENTER":85.5636,"MEAN_ANOMALY":356.8722,"EPHEMERIS_TYPE":0,"CLASSIFICATION_TYPE":"U","NORAD_CAT_ID":68346,"ELEMENT_SET_NO":999,"REV_AT_EPOCH":492,"BSTAR":-0.022144671,"MEAN_MOTION_DOT":-0.01891905,"MEAN_MOTION_DDOT":0},{"OBJECT_NAME":"STARLINK-37136","OBJECT_ID":"2026-059AC","EPOCH":"2026-04-15T06:00:02.000160","MEAN_MOTION":15.70560146,"ECCENTRICITY":0.00011216,"INCLINATION":53.1595,"RA_OF_ASC_NODE":179.5168,"ARG_OF_PERICENTER":86.5081,"MEAN_ANOMALY":75.8377,"EPHEMERIS_TYPE":0,"CLASSIFICATION_TYPE":"U","NORAD_CAT_ID":68347,"ELEMENT_SET_NO":999,"REV_AT_EPOCH":492,"BSTAR":-0.01714422,"MEAN_MOTION_DOT":-0.01909976,"MEAN_MOTION_DDOT":0},{"OBJECT_NAME":"STARLINK-37182","OBJECT_ID":"2026-059AD","EPOCH":"2026-04-15T06:00:02.000160","MEAN_MOTION":15.66141673,"ECCENTRICITY":0.00011036,"INCLINATION":53.1595,"RA_OF_ASC_NODE":179.64,"ARG_OF_PERICENTER":68.4922,"MEAN_ANOMALY":33.5305,"EPHEMERIS_TYPE":0,"CLASSIFICATION_TYPE":"U","NORAD_CAT_ID":68348,"ELEMENT_SET_NO":999,"REV_AT_EPOCH":492,"BSTAR":-0.020504452,"MEAN_MOTION_DOT":-0.01903038,"MEAN_MOTION_DDOT":0},{"OBJECT_NAME":"STARLINK-37183","OBJECT_ID":"2026-059AE","EPOCH":"2026-04-15T05:16:52.102272","MEAN_MOTION":15.71420046,"ECCENTRICITY":8.029e-5,"INCLINATION":53.1592,"RA_OF_ASC_NODE":179.6502,"ARG_OF_PERICENTER":46.4634,"MEAN_ANOMALY":313.6452,"EPHEMERIS_TYPE":0,"CLASSIFICATION_TYPE":"U","NORAD_CAT_ID":68349,"ELEMENT_SET_NO":999,"REV_AT_EPOCH":375,"BSTAR":-0.0076152681,"MEAN_MOTION_DOT":-0.00891532,"MEAN_MOTION_DDOT":0},{"OBJECT_NAME":"CENTISPACE-1 OBJECT A","OBJECT_ID":"2026-060A","EPOCH":"2026-04-15T05:27:59.169888","MEAN_MOTION":14.73544754,"ECCENTRICITY":0.00102999,"INCLINATION":54.9809,"RA_OF_ASC_NODE":292.6213,"ARG_OF_PERICENTER":333.727,"MEAN_ANOMALY":26.3205,"EPHEMERIS_TYPE":0,"CLASSIFICATION_TYPE":"U","NORAD_CAT_ID":68350,"ELEMENT_SET_NO":999,"REV_AT_EPOCH":348,"BSTAR":9.2029826e-5,"MEAN_MOTION_DOT":3.97e-6,"MEAN_MOTION_DDOT":0},{"OBJECT_NAME":"CENTISPACE-1 OBJECT B","OBJECT_ID":"2026-060B","EPOCH":"2026-04-15T05:24:42.252192","MEAN_MOTION":14.7376287,"ECCENTRICITY":0.00108068,"INCLINATION":54.9813,"RA_OF_ASC_NODE":292.6089,"ARG_OF_PERICENTER":338.1054,"MEAN_ANOMALY":21.9481,"EPHEMERIS_TYPE":0,"CLASSIFICATION_TYPE":"U","NORAD_CAT_ID":68351,"ELEMENT_SET_NO":999,"REV_AT_EPOCH":348,"BSTAR":0.00013908703,"MEAN_MOTION_DOT":7.1e-6,"MEAN_MOTION_DDOT":0},{"OBJECT_NAME":"CENTISPACE-1 OBJECT C","OBJECT_ID":"2026-060C","EPOCH":"2026-04-15T03:44:52.434816","MEAN_MOTION":14.73745532,"ECCENTRICITY":0.00098084,"INCLINATION":54.9808,"RA_OF_ASC_NODE":292.8755,"ARG_OF_PERICENTER":2.0232,"MEAN_ANOMALY":358.0805,"EPHEMERIS_TYPE":0,"CLASSIFICATION_TYPE":"U","NORAD_CAT_ID":68352,"ELEMENT_SET_NO":999,"REV_AT_EPOCH":347,"BSTAR":1.734646e-5,"MEAN_MOTION_DOT":-9.3e-7,"MEAN_MOTION_DDOT":0},{"OBJECT_NAME":"CENTISPACE-1 OBJECT D","OBJECT_ID":"2026-060D","EPOCH":"2026-04-15T03:42:39.583584","MEAN_MOTION":14.74292384,"ECCENTRICITY":0.00113454,"INCLINATION":54.9825,"RA_OF_ASC_NODE":292.8714,"ARG_OF_PERICENTER":7.1384,"MEAN_ANOMALY":352.9775,"EPHEMERIS_TYPE":0,"CLASSIFICATION_TYPE":"U","NORAD_CAT_ID":68353,"ELEMENT_SET_NO":999,"REV_AT_EPOCH":347,"BSTAR":1.7801259e-5,"MEAN_MOTION_DOT":-8.9e-7,"MEAN_MOTION_DDOT":0},{"OBJECT_NAME":"CENTISPACE-1 OBJECT E","OBJECT_ID":"2026-060E","EPOCH":"2026-04-15T05:17:39.854688","MEAN_MOTION":14.74545315,"ECCENTRICITY":0.00126611,"INCLINATION":54.9756,"RA_OF_ASC_NODE":292.5708,"ARG_OF_PERICENTER":3.4711,"MEAN_ANOMALY":356.6374,"EPHEMERIS_TYPE":0,"CLASSIFICATION_TYPE":"U","NORAD_CAT_ID":68354,"ELEMENT_SET_NO":999,"REV_AT_EPOCH":348,"BSTAR":1.7994218e-5,"MEAN_MOTION_DOT":-8.8e-7,"MEAN_MOTION_DDOT":0},{"OBJECT_NAME":"CENTISPACE-1 OBJECT F","OBJECT_ID":"2026-060F","EPOCH":"2026-04-15T05:20:32.328960","MEAN_MOTION":14.73875432,"ECCENTRICITY":0.00103971,"INCLINATION":54.9768,"RA_OF_ASC_NODE":292.5807,"ARG_OF_PERICENTER":357.5879,"MEAN_ANOMALY":2.5068,"EPHEMERIS_TYPE":0,"CLASSIFICATION_TYPE":"U","NORAD_CAT_ID":68355,"ELEMENT_SET_NO":999,"REV_AT_EPOCH":348,"BSTAR":1.7895855e-5,"MEAN_MOTION_DOT":-8.9e-7,"MEAN_MOTION_DDOT":0},{"OBJECT_NAME":"CENTISPACE-1 OBJECT G","OBJECT_ID":"2026-060G","EPOCH":"2026-04-15T05:13:59.651328","MEAN_MOTION":14.74586658,"ECCENTRICITY":0.00127688,"INCLINATION":54.9868,"RA_OF_ASC_NODE":292.5778,"ARG_OF_PERICENTER":359.4379,"MEAN_ANOMALY":0.6604,"EPHEMERIS_TYPE":0,"CLASSIFICATION_TYPE":"U","NORAD_CAT_ID":68356,"ELEMENT_SET_NO":999,"REV_AT_EPOCH":348,"BSTAR":1.8191683e-5,"MEAN_MOTION_DOT":-8.7e-7,"MEAN_MOTION_DDOT":0},{"OBJECT_NAME":"CENTISPACE-1 OBJECT H","OBJECT_ID":"2026-060H","EPOCH":"2026-04-14T21:07:18.643296","MEAN_MOTION":14.74219237,"ECCENTRICITY":0.00117688,"INCLINATION":54.9854,"RA_OF_ASC_NODE":293.9641,"ARG_OF_PERICENTER":6.275,"MEAN_ANOMALY":353.8394,"EPHEMERIS_TYPE":0,"CLASSIFICATION_TYPE":"U","NORAD_CAT_ID":68357,"ELEMENT_SET_NO":999,"REV_AT_EPOCH":343,"BSTAR":1.823371e-5,"MEAN_MOTION_DOT":-8.7e-7,"MEAN_MOTION_DDOT":0},{"OBJECT_NAME":"CENTISPACE-1 OBJECT J","OBJECT_ID":"2026-060J","EPOCH":"2026-04-13T20:42:48.300192","MEAN_MOTION":14.74100555,"ECCENTRICITY":0.00117815,"INCLINATION":54.9815,"RA_OF_ASC_NODE":298.1015,"ARG_OF_PERICENTER":0.9389,"MEAN_ANOMALY":359.163,"EPHEMERIS_TYPE":0,"CLASSIFICATION_TYPE":"U","NORAD_CAT_ID":68358,"ELEMENT_SET_NO":999,"REV_AT_EPOCH":328,"BSTAR":1.9419123e-5,"MEAN_MOTION_DOT":-7.9e-7,"MEAN_MOTION_DDOT":0},{"OBJECT_NAME":"CENTISPACE-1 OBJECT K","OBJECT_ID":"2026-060K","EPOCH":"2026-04-04T15:27:21.758112","MEAN_MOTION":14.75283234,"ECCENTRICITY":0.0014769,"INCLINATION":54.98,"RA_OF_ASC_NODE":335.6935,"ARG_OF_PERICENTER":336.0624,"MEAN_ANOMALY":23.9687,"EPHEMERIS_TYPE":0,"CLASSIFICATION_TYPE":"U","NORAD_CAT_ID":68359,"ELEMENT_SET_NO":999,"REV_AT_EPOCH":192,"BSTAR":4.3130657e-5,"MEAN_MOTION_DOT":8.4e-7,"MEAN_MOTION_DDOT":0}]
